{"fetched_at":"2026-07-22T07:09:47.414Z","source":"https://celestrak.org/NORAD/elements/gp.php?NAME=HULIANWANG&FORMAT=JSON","constellation":"guowang","records":[{"OBJECT_NAME":"HULIANWANG DIGUI-44","OBJECT_ID":"2025-162E","EPOCH":"2026-07-21T13:33:19.717920","CLASSIFICATION_TYPE":"U","MEAN_MOTION":13.29318879,"ECCENTRICITY":0.00014498,"INCLINATION":50.0008,"RA_OF_ASC_NODE":142.3928,"ARG_OF_PERICENTER":352.5846,"MEAN_ANOMALY":7.5004,"EPHEMERIS_TYPE":0,"NORAD_CAT_ID":65047,"ELEMENT_SET_NO":999,"REV_AT_EPOCH":4794,"BSTAR":0.000074453413,"MEAN_MOTION_DOT":-8.9e-7,"MEAN_MOTION_DDOT":0},{"OBJECT_NAME":"HULIANWANG DIGUI-45","OBJECT_ID":"2025-162F","EPOCH":"2026-07-21T11:33:09.937728","CLASSIFICATION_TYPE":"U","MEAN_MOTION":13.2932753,"ECCENTRICITY":0.00002693,"INCLINATION":50.0037,"RA_OF_ASC_NODE":142.7042,"ARG_OF_PERICENTER":355.484,"MEAN_ANOMALY":4.603,"EPHEMERIS_TYPE":0,"NORAD_CAT_ID":65048,"ELEMENT_SET_NO":999,"REV_AT_EPOCH":4792,"BSTAR":0.000081065551,"MEAN_MOTION_DOT":-8.6e-7,"MEAN_MOTION_DDOT":0},{"OBJECT_NAME":"HULIANWANG DIGUI-46","OBJECT_ID":"2025-162G","EPOCH":"2026-07-21T11:21:10.296576","CLASSIFICATION_TYPE":"U","MEAN_MOTION":13.29327307,"ECCENTRICITY":0.00002321,"INCLINATION":50.0055,"RA_OF_ASC_NODE":142.7118,"ARG_OF_PERICENTER":353.4366,"MEAN_ANOMALY":6.6503,"EPHEMERIS_TYPE":0,"NORAD_CAT_ID":65049,"ELEMENT_SET_NO":999,"REV_AT_EPOCH":4792,"BSTAR":0.000068593488,"MEAN_MOTION_DOT":-9.2e-7,"MEAN_MOTION_DDOT":0},{"OBJECT_NAME":"HULIANWANG DIGUI-47","OBJECT_ID":"2025-162H","EPOCH":"2026-07-21T14:45:39.765312","CLASSIFICATION_TYPE":"U","MEAN_MOTION":13.29326933,"ECCENTRICITY":0.00002375,"INCLINATION":50.002,"RA_OF_ASC_NODE":142.0302,"ARG_OF_PERICENTER":342.0923,"MEAN_ANOMALY":17.9941,"EPHEMERIS_TYPE":0,"NORAD_CAT_ID":65050,"ELEMENT_SET_NO":999,"REV_AT_EPOCH":4794,"BSTAR":0.000079935707,"MEAN_MOTION_DOT":-8.7e-7,"MEAN_MOTION_DDOT":0},{"OBJECT_NAME":"HULIANWANG DIGUI-48","OBJECT_ID":"2025-162J","EPOCH":"2026-07-21T14:33:37.354176","CLASSIFICATION_TYPE":"U","MEAN_MOTION":13.29327549,"ECCENTRICITY":0.00002541,"INCLINATION":50.003,"RA_OF_ASC_NODE":142.0143,"ARG_OF_PERICENTER":352.7022,"MEAN_ANOMALY":7.3846,"EPHEMERIS_TYPE":0,"NORAD_CAT_ID":65051,"ELEMENT_SET_NO":999,"REV_AT_EPOCH":4794,"BSTAR":0.000056525195,"MEAN_MOTION_DOT":-9.8e-7,"MEAN_MOTION_DDOT":0},{"OBJECT_NAME":"HULIANWANG DIGUI-49","OBJECT_ID":"2025-168A","EPOCH":"2026-07-21T14:14:56.711616","CLASSIFICATION_TYPE":"U","MEAN_MOTION":13.29322203,"ECCENTRICITY":0.00082151,"INCLINATION":50.0006,"RA_OF_ASC_NODE":202.5644,"ARG_OF_PERICENTER":210.508,"MEAN_ANOMALY":149.5315,"EPHEMERIS_TYPE":0,"NORAD_CAT_ID":65106,"ELEMENT_SET_NO":999,"REV_AT_EPOCH":4726,"BSTAR":0.000067927792,"MEAN_MOTION_DOT":-9.2e-7,"MEAN_MOTION_DDOT":0},{"OBJECT_NAME":"HULIANWANG DIGUI-50","OBJECT_ID":"2025-168B","EPOCH":"2026-07-21T14:02:50.540352","CLASSIFICATION_TYPE":"U","MEAN_MOTION":13.29321981,"ECCENTRICITY":0.00088168,"INCLINATION":49.9976,"RA_OF_ASC_NODE":202.4329,"ARG_OF_PERICENTER":196.2558,"MEAN_ANOMALY":163.8032,"EPHEMERIS_TYPE":0,"NORAD_CAT_ID":65107,"ELEMENT_SET_NO":999,"REV_AT_EPOCH":4726,"BSTAR":0.000073596265,"MEAN_MOTION_DOT":-9e-7,"MEAN_MOTION_DDOT":0},{"OBJECT_NAME":"HULIANWANG DIGUI-51","OBJECT_ID":"2025-168C","EPOCH":"2026-07-21T13:50:17.204928","CLASSIFICATION_TYPE":"U","MEAN_MOTION":13.29325213,"ECCENTRICITY":0.00101399,"INCLINATION":50.0013,"RA_OF_ASC_NODE":202.495,"ARG_OF_PERICENTER":195.3006,"MEAN_ANOMALY":164.7561,"EPHEMERIS_TYPE":0,"NORAD_CAT_ID":65108,"ELEMENT_SET_NO":999,"REV_AT_EPOCH":4726,"BSTAR":0.000080049158,"MEAN_MOTION_DOT":-8.7e-7,"MEAN_MOTION_DDOT":0},{"OBJECT_NAME":"HULIANWANG DIGUI-52","OBJECT_ID":"2025-168D","EPOCH":"2026-07-21T13:38:38.330880","CLASSIFICATION_TYPE":"U","MEAN_MOTION":13.29323112,"ECCENTRICITY":0.00103873,"INCLINATION":50.0007,"RA_OF_ASC_NODE":202.4288,"ARG_OF_PERICENTER":207.9168,"MEAN_ANOMALY":152.1147,"EPHEMERIS_TYPE":0,"NORAD_CAT_ID":65109,"ELEMENT_SET_NO":999,"REV_AT_EPOCH":4726,"BSTAR":0.000073182011,"MEAN_MOTION_DOT":-9e-7,"MEAN_MOTION_DDOT":0},{"OBJECT_NAME":"HULIANWANG DIGUI-53","OBJECT_ID":"2025-168E","EPOCH":"2026-07-21T15:14:35.610432","CLASSIFICATION_TYPE":"U","MEAN_MOTION":13.2932652,"ECCENTRICITY":0.00088713,"INCLINATION":50.0014,"RA_OF_ASC_NODE":202.1445,"ARG_OF_PERICENTER":199.104,"MEAN_ANOMALY":160.9501,"EPHEMERIS_TYPE":0,"NORAD_CAT_ID":65110,"ELEMENT_SET_NO":999,"REV_AT_EPOCH":4727,"BSTAR":0.000061642186,"MEAN_MOTION_DOT":-9.5e-7,"MEAN_MOTION_DDOT":0},{"OBJECT_NAME":"HULIANWANG DIGUI-54","OBJECT_ID":"2025-168F","EPOCH":"2026-07-21T14:38:47.115456","CLASSIFICATION_TYPE":"U","MEAN_MOTION":13.2932658,"ECCENTRICITY":0.00106703,"INCLINATION":49.9965,"RA_OF_ASC_NODE":201.8736,"ARG_OF_PERICENTER":203.3202,"MEAN_ANOMALY":156.7187,"EPHEMERIS_TYPE":0,"NORAD_CAT_ID":65111,"ELEMENT_SET_NO":999,"REV_AT_EPOCH":4727,"BSTAR":0.000068244236,"MEAN_MOTION_DOT":-9.2e-7,"MEAN_MOTION_DDOT":0},{"OBJECT_NAME":"HULIANWANG DIGUI-55","OBJECT_ID":"2025-168G","EPOCH":"2026-07-21T13:14:27.871872","CLASSIFICATION_TYPE":"U","MEAN_MOTION":13.29322941,"ECCENTRICITY":0.00117571,"INCLINATION":49.9971,"RA_OF_ASC_NODE":202.2432,"ARG_OF_PERICENTER":199.0878,"MEAN_ANOMALY":160.9555,"EPHEMERIS_TYPE":0,"NORAD_CAT_ID":65112,"ELEMENT_SET_NO":999,"REV_AT_EPOCH":4726,"BSTAR":0.00007408638,"MEAN_MOTION_DOT":-9e-7,"MEAN_MOTION_DDOT":0},{"OBJECT_NAME":"HULIANWANG DIGUI-56","OBJECT_ID":"2025-168H","EPOCH":"2026-07-21T14:50:47.800320","CLASSIFICATION_TYPE":"U","MEAN_MOTION":13.29322364,"ECCENTRICITY":0.00119366,"INCLINATION":49.9963,"RA_OF_ASC_NODE":201.9062,"ARG_OF_PERICENTER":219.2236,"MEAN_ANOMALY":140.7772,"EPHEMERIS_TYPE":0,"NORAD_CAT_ID":65113,"ELEMENT_SET_NO":999,"REV_AT_EPOCH":4727,"BSTAR":0.000066094892,"MEAN_MOTION_DOT":-9.3e-7,"MEAN_MOTION_DDOT":0},{"OBJECT_NAME":"HULIANWANG DIGUI-57","OBJECT_ID":"2025-168J","EPOCH":"2026-07-21T14:26:48.028992","CLASSIFICATION_TYPE":"U","MEAN_MOTION":13.29326547,"ECCENTRICITY":0.00095221,"INCLINATION":49.9991,"RA_OF_ASC_NODE":201.9042,"ARG_OF_PERICENTER":211.5195,"MEAN_ANOMALY":148.5108,"EPHEMERIS_TYPE":0,"NORAD_CAT_ID":65114,"ELEMENT_SET_NO":999,"REV_AT_EPOCH":4728,"BSTAR":0.000070988317,"MEAN_MOTION_DOT":-9.1e-7,"MEAN_MOTION_DDOT":0},{"OBJECT_NAME":"HULIANWANG DIGUI-58","OBJECT_ID":"2025-174A","EPOCH":"2026-07-21T13:34:13.905408","CLASSIFICATION_TYPE":"U","MEAN_MOTION":13.24407743,"ECCENTRICITY":0.00018484,"INCLINATION":86.4939,"RA_OF_ASC_NODE":240.4028,"ARG_OF_PERICENTER":101.4318,"MEAN_ANOMALY":258.7024,"EPHEMERIS_TYPE":0,"NORAD_CAT_ID":65164,"ELEMENT_SET_NO":999,"REV_AT_EPOCH":4534,"BSTAR":0.000003576257,"MEAN_MOTION_DOT":1.6e-7,"MEAN_MOTION_DDOT":0},{"OBJECT_NAME":"HULIANWANG DIGUI-59","OBJECT_ID":"2025-174B","EPOCH":"2026-07-21T13:45:09.890496","CLASSIFICATION_TYPE":"U","MEAN_MOTION":13.24407796,"ECCENTRICITY":0.00019324,"INCLINATION":86.49,"RA_OF_ASC_NODE":240.2778,"ARG_OF_PERICENTER":99.6654,"MEAN_ANOMALY":260.4698,"EPHEMERIS_TYPE":0,"NORAD_CAT_ID":65165,"ELEMENT_SET_NO":999,"REV_AT_EPOCH":4534,"BSTAR":0.000035218502,"MEAN_MOTION_DOT":3e-7,"MEAN_MOTION_DDOT":0}]}
