{"epoch":1784710044,"count":18256,"objects":[{"id":"65047","name":"HULIANWANG DIGUI-44","type":"PAYLOAD","l1":"1 65047U 25162E   26202.56481155 -.00000089  00000-0  74453-4 0  9990","l2":"2 65047  50.0008 142.3928 0001450 352.5846   7.5004 13.29318879 47940"},{"id":"65048","name":"HULIANWANG DIGUI-45","type":"PAYLOAD","l1":"1 65048U 25162F   26202.48136502 -.00000086  00000-0  81066-4 0  9990","l2":"2 65048  50.0037 142.7042 0000269 355.4840   4.6030 13.29327530 47926"},{"id":"65049","name":"HULIANWANG DIGUI-46","type":"PAYLOAD","l1":"1 65049U 25162G   26202.47303584 -.00000092  00000-0  68593-4 0  9993","l2":"2 65049  50.0055 142.7118 0000232 353.4366   6.6503 13.29327307 47921"},{"id":"65050","name":"HULIANWANG DIGUI-47","type":"PAYLOAD","l1":"1 65050U 25162H   26202.61504358 -.00000087  00000-0  79936-4 0  9990","l2":"2 65050  50.0020 142.0302 0000238 342.0923  17.9941 13.29326933 47949"},{"id":"65051","name":"HULIANWANG DIGUI-48","type":"PAYLOAD","l1":"1 65051U 25162J   26202.60668234 -.00000098  00000-0  56525-4 0  9995","l2":"2 65051  50.0030 142.0143 0000254 352.7022   7.3846 13.29327549 47941"},{"id":"65106","name":"HULIANWANG DIGUI-49","type":"PAYLOAD","l1":"1 65106U 25168A   26202.59371194 -.00000092  00000-0  67928-4 0  9999","l2":"2 65106  50.0006 202.5644 0008215 210.5080 149.5315 13.29322203 47260"},{"id":"65107","name":"HULIANWANG DIGUI-50","type":"PAYLOAD","l1":"1 65107U 25168B   26202.58530718 -.00000090  00000-0  73596-4 0  9994","l2":"2 65107  49.9976 202.4329 0008817 196.2558 163.8032 13.29321981 47268"},{"id":"65108","name":"HULIANWANG DIGUI-51","type":"PAYLOAD","l1":"1 65108U 25168C   26202.57658802 -.00000087  00000-0  80049-4 0  9996","l2":"2 65108  50.0013 202.4950 0010140 195.3006 164.7561 13.29325213 47263"},{"id":"65109","name":"HULIANWANG DIGUI-52","type":"PAYLOAD","l1":"1 65109U 25168D   26202.56849920 -.00000090  00000-0  73182-4 0  9993","l2":"2 65109  50.0007 202.4288 0010387 207.9168 152.1147 13.29323112 47260"},{"id":"65110","name":"HULIANWANG DIGUI-53","type":"PAYLOAD","l1":"1 65110U 25168E   26202.63513438 -.00000095  00000-0  61642-4 0  9998","l2":"2 65110  50.0014 202.1445 0008871 199.1040 160.9501 13.29326520 47276"},{"id":"65111","name":"HULIANWANG DIGUI-54","type":"PAYLOAD","l1":"1 65111U 25168F   26202.61026754 -.00000092  00000-0  68244-4 0  9999","l2":"2 65111  49.9965 201.8736 0010670 203.3202 156.7187 13.29326580 47275"},{"id":"65112","name":"HULIANWANG DIGUI-55","type":"PAYLOAD","l1":"1 65112U 25168G   26202.55171148 -.00000090  00000-0  74086-4 0  9990","l2":"2 65112  49.9971 202.2432 0011757 199.0878 160.9555 13.29322941 47260"},{"id":"65113","name":"HULIANWANG DIGUI-56","type":"PAYLOAD","l1":"1 65113U 25168H   26202.61860880 -.00000093  00000-0  66095-4 0  9990","l2":"2 65113  49.9963 201.9062 0011937 219.2236 140.7772 13.29322364 47277"},{"id":"65114","name":"HULIANWANG DIGUI-57","type":"PAYLOAD","l1":"1 65114U 25168J   26202.60194478 -.00000091  00000-0  70988-4 0  9997","l2":"2 65114  49.9991 201.9042 0009522 211.5195 148.5108 13.29326547 47280"},{"id":"65164","name":"HULIANWANG DIGUI-58","type":"PAYLOAD","l1":"1 65164U 25174A   26202.56543872  .00000016  00000-0  35763-5 0  9999","l2":"2 65164  86.4939 240.4028 0001848 101.4318 258.7024 13.24407743 45341"},{"id":"65165","name":"HULIANWANG DIGUI-59","type":"PAYLOAD","l1":"1 65165U 25174B   26202.57303114  .00000030  00000-0  35219-4 0  9995","l2":"2 65165  86.4900 240.2778 0001932  99.6654 260.4698 13.24407796 45340"}]}